[{"OBJECT_NAME":"CUTE-1.7+APD II (CO-65)","OBJECT_ID":"2008-021C","EPOCH":"2026-03-09T21:54:04.726080","MEAN_MOTION":15.08376872,"ECCENTRICITY":0.00096053,"INCLINATION":97.8207,"RA_OF_ASC_NODE":48.3884,"ARG_OF_PERICENTER":18.7003,"MEAN_ANOMALY":341.4575,"EPHEMERIS_TYPE":0,"CLASSIFICATION_TYPE":"U","NORAD_CAT_ID":32785,"ELEMENT_SET_NO":999,"REV_AT_EPOCH":97022,"BSTAR":0.00047295391,"MEAN_MOTION_DOT":7.295e-5,"MEAN_MOTION_DDOT":0},{"OBJECT_NAME":"STARLINK-4162","OBJECT_ID":"2022-086AY","EPOCH":"2026-03-09T14:18:54.903456","MEAN_MOTION":15.08840174,"ECCENTRICITY":0.0001205,"INCLINATION":53.2179,"RA_OF_ASC_NODE":184.541,"ARG_OF_PERICENTER":92.8536,"MEAN_ANOMALY":267.2594,"EPHEMERIS_TYPE":0,"CLASSIFICATION_TYPE":"U","NORAD_CAT_ID":53288,"ELEMENT_SET_NO":999,"REV_AT_EPOCH":20117,"BSTAR":-2.4361e-5,"MEAN_MOTION_DOT":-6.76e-6,"MEAN_MOTION_DDOT":0}]
